NORAD_CAT_ID,OBJECT_NAME,OBJECT_TYPE,EPOCH,MEAN_MOTION,ECCENTRICITY,INCLINATION,RA_OF_ASC_NODE,ARG_OF_PERICENTER,MEAN_ANOMALY,BSTAR,MEAN_MOTION_DOT,MEAN_MOTION_DDOT,TLE_LINE0,TLE_LINE1,TLE_LINE2,SEMIMAJOR_AXIS,PERIOD,APOGEE,PERIGEE,DECAYED
49735.0,STARLINK-3113,PAYLOAD,2023-03-13 00:00:00,15.0891118,0.0001339,53.2177,24.3694,122.707,131.9085,-0.0040148,-0.00063741,0.0,0 STARLINK-3113,1 49735U 21115M   23072.00001157 -.00063741  00000-0 -40148-2 0  9998,2 49735  53.2177  24.3694 0001339 122.7070 131.9085 15.08911180  1303,6917.663,95.433,540.454,538.602,0.0
49735.0,STARLINK-3113,PAYLOAD,2023-03-13 05:14:06,15.08869735,0.0001958,53.2183,23.3884,126.4871,233.6302,0.0015732,0.00024859,0.0,0 STARLINK-3113,1 49735U 21115M   23072.21813601  .00024859  00000-0  15732-2 0  9992,2 49735  53.2183  23.3884 0001958 126.4871 233.6302 15.08869735 71573,6917.79,95.436,541.009,538.3,0.0
49735.0,STARLINK-3113,PAYLOAD,2023-03-13 06:49:29,15.08874284,0.0001802,53.2182,23.0916,126.7112,233.4046,0.0015904,0.00025138,0.0,0 STARLINK-3113,1 49735U 21115M   23072.28437439  .00025138  00000-0  15904-2 0  9992,2 49735  53.2182  23.0916 0001802 126.7112 233.4046 15.08874284 70470,6917.776,95.435,540.887,538.394,0.0
49735.0,STARLINK-3113,PAYLOAD,2023-03-13 21:07:58,15.08838933,0.0001975,53.2177,20.4123,122.9122,237.2061,0.00090586,0.00014158,0.0,0 STARLINK-3113,1 49735U 21115M   23072.88054300  .00014158  00000-0  90586-3 0  9990,2 49735  53.2177  20.4123 0001975 122.9122 237.2061 15.08838933 71678,6917.884,95.438,541.115,538.382,0.0
49735.0,STARLINK-3113,PAYLOAD,2023-03-14 05:04:54,15.0883023,0.0001201,53.2182,18.9296,111.243,248.869,0.00030965,4.642e-05,0.0,0 STARLINK-3113,1 49735U 21115M   23073.21174721  .00004642  00000-0  30965-3 0  9990,2 49735  53.2182  18.9296 0001201 111.2430 248.8690 15.08830230 71726,6917.91,95.438,540.606,538.944,0.0
49735.0,STARLINK-3113,PAYLOAD,2023-03-14 13:01:50,15.08842217,0.0001144,53.2179,17.4425,109.8124,250.2992,0.00084823,0.00013238,0.0,0 STARLINK-3113,1 49735U 21115M   23073.54294744  .00013238  00000-0  84823-3 0  9997,2 49735  53.2179  17.4425 0001144 109.8124 250.2992 15.08842217 70661,6917.874,95.437,540.53,538.947,0.0
49735.0,STARLINK-3113,PAYLOAD,2023-03-15 04:55:41,15.0888978,0.0001426,53.2183,14.4684,88.4963,271.6192,0.0019848,0.00031485,0.0,0 STARLINK-3113,1 49735U 21115M   23074.20533708  .00031485  00000-0  19848-2 0  9995,2 49735  53.2183  14.4684 0001426  88.4963 271.6192 15.08889780 71875,6917.728,95.434,540.58,538.607,0.0
49735.0,STARLINK-3113,PAYLOAD,2023-03-15 06:31:04,15.08898133,0.000147,53.2183,14.1708,89.5213,270.5947,0.0021894,0.00034784,0.0,0 STARLINK-3113,1 49735U 21115M   23074.27157421  .00034784  00000-0  21894-2 0  9995,2 49735  53.2183  14.1708 0001470  89.5213 270.5947 15.08898133 70774,6917.703,95.434,540.585,538.551,0.0
49735.0,STARLINK-3113,PAYLOAD,2023-03-16 04:46:27,15.08866616,0.0001337,53.2169,10.0089,89.8026,270.3119,0.0019283,0.00030557,0.0,0 STARLINK-3113,1 49735U 21115M   23075.19893261  .00030557  00000-0  19283-2 0  9999,2 49735  53.2169  10.0089 0001337  89.8026 270.3119 15.08866616 72022,6917.799,95.436,540.589,538.739,0.0
49735.0,STARLINK-3113,PAYLOAD,2023-03-17 04:37:16,15.08829033,0.0001529,53.2165,5.5468,63.0983,297.0165,0.0016291,0.00025726,0.0,0 STARLINK-3113,1 49735U 21115M   23076.19255296  .00025726  00000-0  16291-2 0  9998,2 49735  53.2165   5.5468 0001529  63.0983 297.0165 15.08829033 72172,6917.914,95.438,540.837,538.721,0.0
49735.0,STARLINK-3113,PAYLOAD,2023-03-17 12:34:12,15.08841065,0.0001565,53.2166,4.0613,54.068,306.0458,0.00097673,0.00015291,0.0,0 STARLINK-3113,1 49735U 21115M   23076.52375357  .00015291  00000-0  97673-3 0  9996,2 49735  53.2166   4.0613 0001565  54.0680 306.0458 15.08841065 71111,6917.877,95.437,540.825,538.659,0.0
49735.0,STARLINK-3113,PAYLOAD,2023-03-17 18:55:44,15.08846816,0.0001634,53.2167,2.8732,55.0488,305.0657,0.00093069,0.00014558,0.0,0 STARLINK-3113,1 49735U 21115M   23076.78871373  .00014558  00000-0  93069-3 0  9993,2 49735  53.2167   2.8732 0001634  55.0488 305.0657 15.08846816 72260,6917.86,95.437,540.855,538.594,0.0
49735.0,STARLINK-3113,PAYLOAD,2023-03-18 04:28:03,15.08871005,0.0001623,53.2157,1.0889,55.2334,304.8811,0.0013332,0.00021012,0.0,0 STARLINK-3113,1 49735U 21115M   23077.18614629  .00021012  00000-0  13332-2 0  9994,2 49735  53.2157   1.0889 0001623  55.2334 304.8811 15.08871005 72327,6917.786,95.436,540.773,538.528,0.0
49735.0,STARLINK-3113,PAYLOAD,2023-03-18 12:24:58,15.08863592,0.0001698,53.2172,359.5999,74.7598,285.3581,0.00089235,0.00013951,0.0,0 STARLINK-3113,1 49735U 21115M   23077.51734560  .00013951  00000-0  89235-3 0  9997,2 49735  53.2172 359.5999 0001698  74.7598 285.3581 15.08863592 72371,6917.808,95.436,540.848,538.499,0.0
49735.0,STARLINK-3113,PAYLOAD,2023-03-18 18:46:31,15.08851187,0.0002161,53.217,358.4123,71.1209,289.0017,0.00022828,3.348e-05,0.0,0 STARLINK-3113,1 49735U 21115M   23077.78230751  .00003348  00000-0  22828-3 0  9993,2 49735  53.2170 358.4123 0002161  71.1209 289.0017 15.08851187 72419,6917.846,95.437,541.206,538.216,0.0
49735.0,STARLINK-3113,PAYLOAD,2023-03-18 21:57:17,15.08846204,0.0001636,53.2174,357.8172,77.3531,282.7644,8.0262e-07,-2.75e-06,0.0,0 STARLINK-3113,1 49735U 21115M   23077.91478620 -.00000275  00000-0  80262-6 0  9993,2 49735  53.2174 357.8172 0001636  77.3531 282.7644 15.08846204 71321,6917.861,95.437,540.858,538.595,0.0
49735.0,STARLINK-3113,PAYLOAD,2023-03-19 04:18:49,15.0885057,0.0001623,53.2178,356.6262,83.5608,276.5568,0.00021308,3.106e-05,0.0,0 STARLINK-3113,1 49735U 21115M   23078.17974477  .00003106  00000-0  21308-3 0  9991,2 49735  53.2178 356.6262 0001623  83.5608 276.5568 15.08850570 71363,6917.848,95.437,540.836,538.59,0.0
49735.0,STARLINK-3113,PAYLOAD,2023-03-19 18:37:18,15.08842178,0.0001572,53.2173,353.949,82.7735,277.3436,8.3329e-05,1.038e-05,0.0,0 STARLINK-3113,1 49735U 21115M   23078.77590636  .00001038  00000-0  83329-4 0  9992,2 49735  53.2173 353.9490 0001572  82.7735 277.3436 15.08842178 72567,6917.874,95.437,540.826,538.651,0.0
49735.0,STARLINK-3113,PAYLOAD,2023-03-19 21:48:04,15.08847323,0.0001517,53.2159,353.3541,92.4802,267.6364,0.00014865,2.079e-05,0.0,0 STARLINK-3113,1 49735U 21115M   23078.90838418  .00002079  00000-0  14865-3 0  9994,2 49735  53.2159 353.3541 0001517  92.4802 267.6364 15.08847323 71472,6917.858,95.437,540.772,538.674,0.0
49735.0,STARLINK-3113,PAYLOAD,2023-03-20 04:09:36,15.08860013,0.0001376,53.2176,352.1657,85.1843,274.9307,0.00075441,0.00011745,0.0,0 STARLINK-3113,1 49735U 21115M   23079.17334156  .00011745  00000-0  75441-3 0  9991,2 49735  53.2176 352.1657 0001376  85.1843 274.9307 15.08860013 72620,6917.819,95.436,540.636,538.732,0.0
49735.0,STARLINK-3113,PAYLOAD,2023-03-20 21:38:51,15.08843056,0.0001568,53.2178,348.8957,102.8832,257.2335,0.00046896,7.184e-05,0.0,0 STARLINK-3113,1 49735U 21115M   23079.90198595  .00007184  00000-0  46896-3 0  9991,2 49735  53.2178 348.8957 0001568 102.8832 257.2335 15.08843056 72730,6917.871,95.437,540.821,538.651,0.0
49735.0,STARLINK-3113,PAYLOAD,2023-03-21 04:00:24,15.08859806,0.0001328,53.2173,347.7072,67.6169,292.4964,0.0016243,0.00025671,0.0,0 STARLINK-3113,1 49735U 21115M   23080.16694533  .00025671  00000-0  16243-2 0  9997,2 49735  53.2173 347.7072 0001328  67.6169 292.4964 15.08859806 71666,6917.82,95.436,540.604,538.766,0.0
49735.0,STARLINK-3113,PAYLOAD,2023-03-22 03:51:11,15.08844706,0.0001373,53.2163,343.2451,81.3937,278.7211,0.00082373,0.00012848,0.0,0 STARLINK-3113,1 49735U 21115M   23081.16054822  .00012848  00000-0  82373-3 0  9999,2 49735  53.2163 343.2451 0001373  81.3937 278.7211 15.08844706 72928,6917.866,95.437,540.681,538.781,0.0
49735.0,STARLINK-3113,PAYLOAD,2023-03-22 21:20:25,15.0884443,0.000151,53.216,339.9746,81.8397,278.2767,0.00058034,8.961e-05,0.0,0 STARLINK-3113,1 49735U 21115M   23081.88918948  .00008961  00000-0  58034-3 0  9994,2 49735  53.2160 339.9746 0001510  81.8397 278.2767 15.08844430 71926,6917.867,95.437,540.776,538.687,0.0
49735.0,STARLINK-3113,PAYLOAD,2023-03-23 02:06:35,15.0885002,0.0001269,53.2162,339.0831,80.3562,279.7574,0.00087672,0.00013696,0.0,0 STARLINK-3113,1 49735U 21115M   23082.08790738  .00013696  00000-0  87672-3 0  9993,2 49735  53.2162 339.0831 0001269  80.3562 279.7574 15.08850020 73064,6917.85,95.437,540.593,538.837,0.0
49735.0,STARLINK-3113,PAYLOAD,2023-03-23 21:11:13,15.08844266,9.63e-05,53.2154,335.5148,110.0654,250.0442,0.0010366,0.0001625,0.0,0 STARLINK-3113,1 49735U 21115M   23082.88279089  .00016250  00000-0  10366-2 0  9996,2 49735  53.2154 335.5148 0000963 110.0654 250.0442 15.08844266 73184,6917.867,95.437,540.399,539.066,0.0
49735.0,STARLINK-3113,PAYLOAD,2023-03-24 01:57:22,15.08875503,0.0001156,53.215,334.6233,81.7061,278.4063,0.0026544,0.00042251,0.0,0 STARLINK-3113,1 49735U 21115M   23083.08150892  .00042251  00000-0  26544-2 0  9994,2 49735  53.2150 334.6233 0001156  81.7061 278.4063 15.08875503 73211,6917.772,95.435,540.437,538.837,0.0
49735.0,STARLINK-3113,PAYLOAD,2023-03-24 21:01:58,15.08886349,0.0001702,53.2147,331.0482,98.8995,261.219,0.00133,0.00020969,0.0,0 STARLINK-3113,1 49735U 21115M   23083.87637278  .00020969  00000-0  13300-2 0  9997,2 49735  53.2147 331.0482 0001702  98.8995 261.2190 15.08886349 73330,6917.739,95.435,540.781,538.426,0.0
49735.0,STARLINK-3113,PAYLOAD,2023-03-24 22:37:21,15.08880903,0.000133,53.2143,330.7541,90.5723,269.5421,0.00078133,0.00012183,0.0,0 STARLINK-3113,1 49735U 21115M   23083.94261086  .00012183  00000-0  78133-3 0  9990,2 49735  53.2143 330.7541 0001330  90.5723 269.5421 15.08880903 72239,6917.755,95.435,540.54,538.7,0.0
49735.0,STARLINK-3113,PAYLOAD,2023-03-25 20:52:46,15.08813111,0.0001256,53.2155,326.5924,86.8694,273.2442,0.00090131,0.00014075,0.0,0 STARLINK-3113,1 49735U 21115M   23084.86998495  .00014075  00000-0  90131-3 0  9997,2 49735  53.2155 326.5924 0001256  86.8694 273.2442 15.08813111 73482,6917.963,95.439,540.696,538.959,0.0
